SatCatId,ObjectName,LaunchYear,OrbitalPeriod,LaunchMass,StatusCode,Inclination,Status,UcsData,OrbitClassEstimated,LaunchSiteCountry,Owner,UseType,Purpose,LaunchVehicleClass,TLE1,TLE2,MeanMotion,Eccentricity,OrbitClass
46355,STARLINK-1661,2020,95.59,260.0,+,53.05,Active,1,LEO,USA,USA,Commercial,Communications,Falcon,1 46355U 20062AG  24131.45982689  .00002303  00000+0  17341-3 0  9991,2 46355  53.0537 136.4141 0001331  79.5896 280.5243 15.06404735203598,15.06404735,0.0001331,LEO
46356,STARLINK-1665,2020,95.59,260.0,+,53.05,Active,1,LEO,USA,USA,Commercial,Communications,Falcon,1 46356U 20062AH  24131.27553331  .00007418  00000+0  51640-3 0  9992,2 46356  53.0522 137.2783 0001330  87.3047 272.8094 15.06398924203565,15.06398924,0.000133,LEO
46357,STARLINK-1666,2020,95.59,260.0,+,53.05,Active,1,LEO,USA,USA,Commercial,Communications,Falcon,1 46357U 20062AJ  24131.33635156  .00001380  00000+0  11149-3 0  9998,2 46357  53.0537 116.9687 0001380  89.9927 270.1220 15.06409973203850,15.06409973,0.000138,LEO
46358,STARLINK-1690,2020,95.59,260.0,+,53.05,Active,1,LEO,USA,USA,Commercial,Communications,Falcon,1 46358U 20062AK  24131.31607300  .00001113  00000+0  93577-4 0  9997,2 46358  53.0539 137.0619 0001384  81.1813 278.9333 15.06398995203575,15.06398995,0.0001384,LEO
46359,STARLINK-1707,2020,95.59,260.0,+,53.05,Active,1,LEO,USA,USA,Commercial,Communications,Falcon,1 46359U 20062AL  24131.16356056  .00001287  00000+0  10525-3 0  9993,2 46359  53.0545  92.7434 0001439  92.1493 267.9661 15.06406430204175,15.0640643,0.0001439,LEO
46360,STARLINK-1713,2020,95.59,260.0,+,53.06,Active,1,LEO,USA,USA,Commercial,Communications,Falcon,1 46360U 20062AM  24131.18567401 -.00003622  00000+0 -22426-3 0  9995,2 46360  53.0561  92.6441 0001468  90.6318 269.4839 15.06417492204188,15.06417492,0.0001468,LEO
46361,STARLINK-1722,2020,95.59,260.0,+,53.05,Active,1,LEO,USA,USA,Commercial,Communications,Falcon,1 46361U 20062AN  24131.28793666  .00000640  00000+0  61825-4 0  9993,2 46361  53.0544  92.1769 0001468  88.7354 271.3803 15.06405028204192,15.06405028,0.0001468,LEO
46362,STARLINK-1726,2020,95.59,260.0,+,53.06,Active,1,LEO,USA,USA,Commercial,Communications,Falcon,1 46362U 20062AP  24131.59850626 -.00000660  00000+0 -25400-4 0  9991,2 46362  53.0563  90.7907 0001426  97.3797 262.7354 15.06398337204248,15.06398337,0.0001426,LEO
46363,STARLINK-1739,2020,95.59,260.0,+,53.05,Active,1,LEO,USA,USA,Commercial,Communications,Falcon,1 46363U 20062AQ  24131.59018355  .00002211  00000+0  16723-3 0  9996,2 46363  53.0545  90.8180 0001254  93.9968 266.1164 15.06405893204247,15.06405893,0.0001254,LEO
46364,STARLINK-1763,2020,95.59,260.0,+,53.06,Active,1,LEO,USA,USA,Commercial,Communications,Falcon,1 46364U 20062AR  24131.52668088  .00000492  00000+0  51914-4 0  9995,2 46364  53.0540  71.6236 0001155  87.9279 272.1843 15.06411365204680,15.06411365,0.0001155,LEO
46366,STARLINK-1651,2020,95.59,260.0,+,53.05,Active,1,LEO,USA,USA,Commercial,Communications,Falcon,1 46366U 20062AT  24131.15990234  .00016819  00000+0  11453-2 0  9999,2 46366  53.0531  92.7582 0001297  99.7880 260.3255 15.06400879204174,15.06400879,0.0001297,LEO
46368,STARLINK-1658,2020,92.22,260.0,P,53.05,Active,1,LEO,USA,USA,Commercial,Communications,Falcon,1 46368U 20062AV  24131.58334491  .00070407  00000+0  80620-3 0  9991,2 46368  53.0538 110.4646 0001719 109.7315 263.8133 15.61504513204158,15.61504513,0.0001719,LEO
46370,STARLINK-1670,2020,95.59,260.0,+,53.05,Active,1,LEO,USA,USA,Commercial,Communications,Falcon,1 46370U 20062AX  24131.25526032 -.00000891  00000+0 -40938-4 0  9993,2 46370  53.0524 117.3320 0000962  99.1606 260.9492 15.06386175203847,15.06386175,9.62e-05,LEO
46371,STARLINK-1688,2020,92.17,260.0,P,53.05,Active,1,LEO,USA,USA,Commercial,Communications,Falcon,1 46371U 20062AY  24131.58334491  .00073771  00000+0  81618-3 0  9990,2 46371  53.0517 109.8002 0001711 111.4434 123.6688 15.62372947  5849,15.62372947,0.0001711,LEO
46372,STARLINK-1689,2020,95.59,260.0,+,53.05,Active,1,LEO,USA,USA,Commercial,Communications,Falcon,1 46372U 20062AZ  24131.45614517  .00003006  00000+0  22060-3 0  9997,2 46372  53.0540 136.4302 0001211  87.0801 273.0326 15.06403935203597,15.06403935,0.0001211,LEO
46374,STARLINK-1711,2020,95.59,260.0,+,53.06,Active,1,LEO,USA,USA,Commercial,Communications,Falcon,1 46374U 20062BB  24131.53631829  .00000610  00000+0  59889-4 0  9991,2 46374  53.0564  66.0749 0001728  87.0446 273.0740 15.06391755204582,15.06391755,0.0001728,LEO
46375,STARLINK-1724,2020,95.59,260.0,+,53.05,Active,1,LEO,USA,USA,Commercial,Communications,Falcon,1 46375U 20062BC  24131.28521391 -.00001527  00000+0 -83671-4 0  9992,2 46375  53.0549  92.1996 0001330  88.8636 271.2506 15.06398048204198,15.06398048,0.000133,LEO
46376,STARLINK-1742,2020,95.59,260.0,+,53.06,Active,1,LEO,USA,USA,Commercial,Communications,Falcon,1 46376U 20062BD  24131.29995351 -.00000434  00000+0 -10258-4 0  9992,2 46376  53.0555  92.1322 0001641  98.9015 261.2160 15.06397797204192,15.06397797,0.0001641,LEO
46380,STARLINK-1758,2020,95.59,260.0,+,53.05,Active,1,LEO,USA,USA,Commercial,Communications,Falcon,1 46380U 20062BH  24131.33267593 -.00001810  00000+0 -10267-3 0  9990,2 46380  53.0534 116.9844 0001389  87.1802 272.9346 15.06391249203854,15.06391249,0.0001389,LEO
46382,STARLINK-1769,2020,95.59,260.0,+,53.06,Active,1,LEO,USA,USA,Commercial,Communications,Falcon,1 46382U 20062BK  24131.58006742  .00000722  00000+0  67358-4 0  9999,2 46382  53.0545  90.8710 0001261  86.9145 273.1989 15.06405476204244,15.06405476,0.0001261,LEO
46383,STARLINK-1770,2020,95.59,260.0,+,53.05,Active,1,LEO,USA,USA,Commercial,Communications,Falcon,1 46383U 20062BL  24131.30132592 -.00002828  00000+0 -17109-3 0  9992,2 46383  53.0537 137.1268 0001171  92.1517 267.9606 15.06389892203565,15.06389892,0.0001171,LEO
46384,STARLINK-1771,2020,95.59,260.0,+,53.05,Active,1,LEO,USA,USA,Commercial,Communications,Falcon,1 46384U 20062BM  24131.43771668 -.00000264  00000+0  11955-5 0  9996,2 46384  53.0541 136.5109 0001324  92.1158 267.9983 15.06385011203588,15.06385011,0.0001324,LEO
46396,GAOFEN-11 02,2020,94.51,1000.0,+,97.44,Active,1,LEO,PRC,China,Government,Earth Observation,Long March,1 46396U 20064A   24131.53085117  .00014780  00000+0  61807-3 0  9995,2 46396  97.4384 249.6565 0005587 194.1016 166.0066 15.23680235204656,15.23680235,0.0005587,LEO
46454,JILIN-1 GAOFEN 3B,2020,94.44,40.0,+,97.34,Active,1,LEO,Sea Launch Platform,China,Commercial,Earth Observation,Long March,1 46454U 20065A   24131.55630895  .00019795  00000+0  79894-3 0  9998,2 46454  97.3441 177.1394 0009949 359.6867   0.4362 15.24779024201694,15.24779024,0.0009949,LEO
46455,JILIN-1 GAOFEN 3C,2020,94.43,40.0,+,97.34,Active,1,LEO,Sea Launch Platform,China,Commercial,Earth Observation,Long March,1 46455U 20065B   24131.56614101  .00019706  00000+0  79195-3 0  9998,2 46455  97.3396 176.4781 0009583  15.7996 344.3539 15.24926005201704,15.24926005,0.0009583,LEO
46456,JILIN-1 GAOFEN 3D,2020,94.39,40.0,+,97.35,Active,1,LEO,Sea Launch Platform,China,Commercial,Earth Observation,Long March,1 46456U 20065C   24131.56350036  .00021387  00000+0  84440-3 0  9990,2 46456  97.3482 178.2655 0008798  16.5573 343.5950 15.25510641201713,15.25510641,0.0008798,LEO
46457,JILIN-1 GAOFEN 3E,2020,94.45,40.0,+,97.35,Active,1,LEO,Sea Launch Platform,China,Commercial,Earth Observation,Long March,1 46457U 20065D   24131.57393138  .00019336  00000+0  78538-3 0  9994,2 46457  97.3450 177.2483 0009447  22.1243 338.0400 15.24575664201697,15.24575664,0.0009447,LEO
46458,JILIN-1 GAOFEN 3F,2020,94.45,40.0,+,97.34,Active,1,LEO,Sea Launch Platform,China,Commercial,Earth Observation,Long March,1 46458U 20065E   24131.61383486  .00019749  00000+0  80156-3 0  9992,2 46458  97.3384 176.1421 0009416  10.1852 349.9574 15.24596420201701,15.2459642,0.0009416,LEO
46459,JILIN-1 GAOFEN 3G,2020,94.44,40.0,+,97.35,Active,1,LEO,Sea Launch Platform,China,Commercial,Earth Observation,Long March,1 46459U 20065F   24131.52789082  .00019784  00000+0  80026-3 0  9990,2 46459  97.3500 178.2662 0010359  15.3606 344.7944 15.24701123201694,15.24701123,0.0010359,LEO
46460,JILIN-1 GAOFEN 3H,2020,94.46,40.0,+,97.34,Active,1,LEO,Sea Launch Platform,China,Commercial,Earth Observation,Long March,1 46460U 20065G   24131.56805735  .00018841  00000+0  76922-3 0  9993,2 46460  97.3396 176.2805 0009666  12.8757 347.2725 15.24406150201691,15.2440615,0.0009666,LEO
46461,JILIN-1 GAOFEN 3I,2020,94.45,40.0,+,97.35,Active,1,LEO,Sea Launch Platform,China,Commercial,Earth Observation,Long March,1 46461U 20065H   24131.52349874  .00019836  00000+0  80321-3 0  9990,2 46461  97.3485 177.9688 0009730   4.7644 355.3684 15.24670484201692,15.24670484,0.000973,LEO
46462,JILIN-1 GAOFEN 3J,2020,94.44,40.0,+,97.34,Active,1,LEO,Sea Launch Platform,China,Commercial,Earth Observation,Long March,1 46462U 20065J   24131.56967703  .00019487  00000+0  78749-3 0  9995,2 46462  97.3439 177.2270 0009225  10.4236 349.7191 15.24747199201702,15.24747199,0.0009225,LEO
46469,HAIYANG-2C,2020,104.09,1500.0,+,66.0,Active,1,LEO,PRC,China,Government,Earth Observation,Long March,1 46469U 20066A   24131.61219836  .00000036  00000+0  10678-3 0  9993,2 46469  65.9966 326.3750 0012042 247.7073 112.2719 13.83376771183323,13.83376771,0.0012042,LEO
46478,HJ-2A,2020,97.53,-1.0,+,97.94,Active,1,LEO,PRC,China,Government,Earth Observation,Long March,1 46478U 20067A   24131.56226279  .00001974  00000+0  29074-3 0  9999,2 46478  97.9405 214.1732 0001004 148.4688 211.6583 14.76485437194985,14.76485437,0.0001004,LEO
46479,HJ-2B,2020,97.53,-1.0,+,97.94,Active,1,LEO,PRC,China,Government,Earth Observation,Long March,1 46479U 20067B   24131.52991232  .00001979  00000+0  29141-3 0  9994,2 46479  97.9445 214.6854 0001897  42.9300 317.2058 14.76489151194986,14.76489151,0.0001897,LEO
